format  = 'OEF2.0'       ! file format
rectype = 'ML'           ! record type (1L/ML)
refsys  = ECLM J2000     ! default reference system
END_OF_HEADER
va_000104
! Equinoctial elements: a, e*sin(LP), e*cos(LP), tan(i/2)*sin(LN), tan(i/2)*cos(LN), mean long.
 EQU   1.4596946126230823E+00   0.285838574289517   0.187511982354129   -0.001113544868215   -0.001969735862658  34.9396202334825
 MJD     57291.958166082 TDT
 MAG  22.961  0.150
! Non-grav parameters: model used, actual number in use, dimension
 LSP   0  0    6
! RMS    7.65481E-05   2.84579E-05   1.92968E-05   1.08878E-07   1.43180E-07   2.21487E-03
! EIG   2.03849E-08   2.27815E-08   5.43007E-08   8.15616E-08   9.40831E-07   9.23868E-05
! WEA   0.83231   0.45163   0.30620  -0.00168  -0.00187   0.09762
 COV   5.859616350432678E-09  2.178222009687588E-09  1.476862466393027E-09
 COV  -8.113490614173147E-12 -9.036031576036234E-12  1.694998107348806E-07
 COV   8.098503122212086E-10  5.488703785962507E-10 -3.016922760980789E-12
 COV  -3.360052261771311E-12  6.302706850957378E-08  3.723678023917283E-10
 COV  -2.043974118093725E-12 -2.276273017308413E-12  4.270214942374377E-08
 COV   1.185439015396427E-14  1.327415754232116E-14 -2.348243555126154E-10
 COV   2.050052071086585E-14 -2.615383003466709E-10  4.905655517915523E-06
 NOR   1.407907265324600E+14  1.719522480019953E+14 -3.660864569220424E+14
 NOR   6.575286247641320E+12  6.641833326873594E+11 -3.886789688719899E+12
 NOR   9.665171338724822E+14 -7.225492995623665E+14 -2.689175324273711E+13
 NOR   1.592882977079882E+12 -1.207057955263396E+13  1.053704385609956E+15
 NOR  -4.548614087329237E+12 -2.069635373521805E+12  1.275970104307047E+13
 NOR   1.899814903843655E+15 -2.184768891219618E+14  2.371990715186936E+11
 NOR   1.776663289724629E+14 -2.638443715352774E+10  1.783179631872895E+11
va_000105
! Equinoctial elements: a, e*sin(LP), e*cos(LP), tan(i/2)*sin(LN), tan(i/2)*cos(LN), mean long.
 EQU   1.4596952030620411E+00   0.285838793784588   0.187512131162360   -0.001113545685814   -0.001969736773261  34.9396373145414
 MJD     57291.958166082 TDT
 MAG  22.961  0.150
! Non-grav parameters: model used, actual number in use, dimension
 LSP   0  0    6
! RMS    7.65482E-05   2.84579E-05   1.92968E-05   1.08878E-07   1.43180E-07   2.21487E-03
! EIG   2.03849E-08   2.27815E-08   5.43007E-08   8.15617E-08   9.40832E-07   9.23869E-05
! WEA   0.83231   0.45163   0.30620  -0.00168  -0.00187   0.09762
 COV   5.859628237427113E-09  2.178224655927929E-09  1.476864080438876E-09
 COV  -8.113498444677687E-12 -9.036035499484916E-12  1.694999304737204E-07
 COV   8.098506371096319E-10  5.488705316701302E-10 -3.016923218257135E-12
 COV  -3.360050987388667E-12  6.302706176042717E-08  3.723678611081737E-10
 COV  -2.043974176962885E-12 -2.276271874003240E-12  4.270213960537145E-08
 COV   1.185438990089394E-14  1.327415100160384E-14 -2.348242718112948E-10
 COV   2.050051169858492E-14 -2.615380683103339E-10  4.905652500516693E-06
 NOR   1.407904350997876E+14  1.719520502736334E+14 -3.660860694138017E+14
 NOR   6.575275846079703E+12  6.641819787133300E+11 -3.886786775923250E+12
 NOR   9.665169353957938E+14 -7.225493475232860E+14 -2.689173441118315E+13
 NOR   1.592885639746419E+12 -1.207058148975196E+13  1.053704438389411E+15
 NOR  -4.548604390205188E+12 -2.069635067833104E+12  1.275970571005081E+13
 NOR   1.899812613449967E+15 -2.184767721358154E+14  2.371989183816860E+11
 NOR   1.776661659453647E+14 -2.638446940014797E+10  1.783180602780109E+11
va_000106
! Equinoctial elements: a, e*sin(LP), e*cos(LP), tan(i/2)*sin(LN), tan(i/2)*cos(LN), mean long.
 EQU   1.4596957901909988E+00   0.285839012048992   0.187512279136233   -0.001113546498829   -0.001969737678757  34.9396542998214
 MJD     57291.958166082 TDT
 MAG  22.961  0.150
! Non-grav parameters: model used, actual number in use, dimension
 LSP   0  0    6
! RMS    7.65483E-05   2.84579E-05   1.92968E-05   1.08878E-07   1.43180E-07   2.21487E-03
! EIG   2.03849E-08   2.27815E-08   5.43008E-08   8.15617E-08   9.40832E-07   9.23869E-05
! WEA   0.83231   0.45163   0.30620  -0.00168  -0.00187   0.09762
 COV   5.859640046365460E-09  2.178227283083893E-09  1.476865682555715E-09
 COV  -8.113506215450782E-12 -9.036039383302209E-12  1.695000492105061E-07
 COV   8.098509585961407E-10  5.488706828145424E-10 -3.016923667082003E-12
 COV  -3.360049713594671E-12  6.302705492613010E-08  3.723679187693072E-10
 COV  -2.043974231511232E-12 -2.276270732664475E-12  4.270212975868529E-08
 COV   1.185438962730961E-14  1.327414447313786E-14 -2.348241881211170E-10
 COV   2.050050270965021E-14 -2.615378370649097E-10  4.905649490466325E-06
 NOR   1.407901453018400E+14  1.719518536543631E+14 -3.660856840791007E+14
 NOR   6.575265502860119E+12  6.641806323343424E+11 -3.886783879464427E+12
 NOR   9.665167380334481E+14 -7.225493952164261E+14 -2.689171568526132E+13
 NOR   1.592888287480244E+12 -1.207058341602712E+13  1.053704490874636E+15
 NOR  -4.548594747469621E+12 -2.069634763862439E+12  1.275971035088374E+13
 NOR   1.899810335903046E+15 -2.184766558057012E+14  2.371987661037230E+11
 NOR   1.776660038326328E+14 -2.638450146594899E+10  1.783181568246522E+11
va_000107
! Equinoctial elements: a, e*sin(LP), e*cos(LP), tan(i/2)*sin(LN), tan(i/2)*cos(LN), mean long.
 EQU   1.4596963740806883E+00   0.285839229109025   0.187512426293582   -0.001113547307358   -0.001969738579257  34.9396711913689
 MJD     57291.958166082 TDT
 MAG  22.961  0.150
! Non-grav parameters: model used, actual number in use, dimension
 LSP   0  0    6
! RMS    7.65484E-05   2.84579E-05   1.92968E-05   1.08878E-07   1.43180E-07   2.21487E-03
! EIG   2.03849E-08   2.27815E-08   5.43008E-08   8.15618E-08   9.40833E-07   9.23870E-05
! WEA   0.83231   0.45163   0.30620  -0.00168  -0.00187   0.09762
 COV   5.859651790101976E-09  2.178229895722270E-09  1.476867275817166E-09
 COV  -8.113513943262167E-12 -9.036043245591596E-12  1.695001672903239E-07
 COV   8.098512782997122E-10  5.488708331186977E-10 -3.016924113396323E-12
 COV  -3.360048446792656E-12  6.302704812884213E-08  3.723679761079390E-10
 COV  -2.043974285735111E-12 -2.276269597598433E-12  4.270211996584978E-08
 COV   1.185438935510848E-14  1.327413798056245E-14 -2.348241048901441E-10
 COV   2.050049377018166E-14 -2.615376070928192E-10  4.905646496972905E-06
 NOR   1.407898571037018E+14  1.719516581204620E+14 -3.660853008715142E+14
 NOR   6.575255216736667E+12  6.641792933879045E+11 -3.886780998994340E+12
 NOR   9.665165417617404E+14 -7.225494426475041E+14 -2.689169706271396E+13
 NOR   1.592890920600055E+12 -1.207058533169183E+13  1.053704543071954E+15
 NOR  -4.548585157962034E+12 -2.069634461572473E+12  1.275971496612831E+13
 NOR   1.899808070928484E+15 -2.184765401176782E+14  2.371986146664324E+11
 NOR   1.776658426148052E+14 -2.638453335478655E+10  1.783182528388476E+11
va_000108
! Equinoctial elements: a, e*sin(LP), e*cos(LP), tan(i/2)*sin(LN), tan(i/2)*cos(LN), mean long.
 EQU   1.4596969547999394E+00   0.285839444990282   0.187512572651749   -0.001113548111495   -0.001969739474865  34.9396879911761
 MJD     57291.958166082 TDT
 MAG  22.961  0.150
! Non-grav parameters: model used, actual number in use, dimension
 LSP   0  0    6
! RMS    7.65484E-05   2.84579E-05   1.92968E-05   1.08878E-07   1.43180E-07   2.21487E-03
! EIG   2.03849E-08   2.27815E-08   5.43008E-08   8.15618E-08   9.40833E-07   9.23870E-05
! WEA   0.83231   0.45163   0.30620  -0.00168  -0.00187   0.09762
 COV   5.859663480314348E-09  2.178232497978065E-09  1.476868863004803E-09
 COV  -8.113521643279988E-12 -9.036047102686732E-12  1.695002850249348E-07
 COV   8.098515976808922E-10  5.488709835646528E-10 -3.016924562553403E-12
 COV  -3.360047192736679E-12  6.302704147849638E-08  3.723680337844059E-10
 COV  -2.043974343233444E-12 -2.276268472672308E-12  4.270211030076038E-08
 COV   1.185438910400561E-14  1.327413154510468E-14 -2.348240225210916E-10
 COV   2.050048490361949E-14 -2.615373788263824E-10  4.905643528301451E-06
 NOR   1.407895704713727E+14  1.719514636488641E+14 -3.660849197458271E+14
 NOR   6.575244986494951E+12  6.641779617160490E+11 -3.886778134173053E+12
 NOR   9.665163465573240E+14 -7.225494898220220E+14 -2.689167854134414E+13
 NOR   1.592893539416562E+12 -1.207058723696973E+13  1.053704594987428E+15
 NOR  -4.548575620548875E+12 -2.069634160927479E+12  1.275971955632727E+13
 NOR   1.899805818258978E+15 -2.184764250580735E+14  2.371984640519610E+11
 NOR   1.776656822728357E+14 -2.638456507042247E+10  1.783183483318890E+11
